{
  "type": "FeatureCollection",
  "features": [
    {
      "type": "Feature",
      "properties": {
        "norad_id": 46997,
        "name": "FENGYUN 1C DEB",
        "group": "fengyun-1c-debris",
        "lat": 40.75103864982783,
        "lon": 29.301795751687607,
        "alt_km": 796.319356850875,
        "timestamp": "2025-12-22T14:45:57.693637+00:00",
        "meta_object_name": "FENGYUN 1C DEB",
        "meta_object_id": "1999-025EZX",
        "meta_epoch": "2025-12-14T20:44:05.032032",
        "meta_mean_motion": 14.28011803,
        "meta_eccentricity": 0.00246638,
        "meta_inclination": 98.5587,
        "meta_ra_of_asc_node": 29.1623,
        "meta_arg_of_pericenter": 329.7037,
        "meta_mean_anomaly": 205.3871,
        "meta_ephemeris_type": 0,
        "meta_classification_type": "U",
        "meta_norad_cat_id": 46997,
        "meta_element_set_no": 999,
        "meta_rev_at_epoch": 62481,
        "meta_bstar": 0.00094694744,
        "meta_mean_motion_dot": 2.314e-05,
        "meta_mean_motion_ddot": 0,
        "tle_line1": "1 46997U 99025EZX 25348.86394713  .00002314  00000+0  94695-3 0  9998",
        "tle_line2": "2 46997  98.5587  29.1623 0024663 329.7037 205.3871 14.28011803624819"
      },
      "geometry": {
        "type": "Point",
        "coordinates": [
          29.301795751687607,
          40.75103864982783
        ]
      }
    },
    {
      "type": "Feature",
      "properties": {
        "norad_id": 47001,
        "name": "FENGYUN 1C DEB",
        "group": "fengyun-1c-debris",
        "lat": 74.75289252197156,
        "lon": 18.501420602797676,
        "alt_km": 736.3202865279736,
        "timestamp": "2025-12-22T14:45:57.693647+00:00",
        "meta_object_name": "FENGYUN 1C DEB",
        "meta_object_id": "1999-025FAB",
        "meta_epoch": "2025-12-21T21:42:56.731392",
        "meta_mean_motion": 14.38539606,
        "meta_eccentricity": 0.00511443,
        "meta_inclination": 99.3039,
        "meta_ra_of_asc_node": 54.7035,
        "meta_arg_of_pericenter": 22.5834,
        "meta_mean_anomaly": 337.7586,
        "meta_ephemeris_type": 0,
        "meta_classification_type": "U",
        "meta_norad_cat_id": 47001,
        "meta_element_set_no": 999,
        "meta_rev_at_epoch": 74046,
        "meta_bstar": 0.0013955962,
        "meta_mean_motion_dot": 4.285e-05,
        "meta_mean_motion_ddot": 0,
        "tle_line1": "1 47001U 99025FAB 25355.90482328  .00004285  00000+0  13956-2 0  9997",
        "tle_line2": "2 47001  99.3039  54.7035 0051144  22.5834 337.7586 14.38539606740465"
      },
      "geometry": {
        "type": "Point",
        "coordinates": [
          18.501420602797676,
          74.75289252197156
        ]
      }
    },
    {
      "type": "Feature",
      "properties": {
        "norad_id": 47005,
        "name": "FENGYUN 1C DEB",
        "group": "fengyun-1c-debris",
        "lat": -77.4108430060253,
        "lon": -143.05974495144417,
        "alt_km": 829.4850469294579,
        "timestamp": "2025-12-22T14:45:57.693657+00:00",
        "meta_object_name": "FENGYUN 1C DEB",
        "meta_object_id": "1999-025FAF",
        "meta_epoch": "2025-12-21T12:05:43.680192",
        "meta_mean_motion": 14.11117395,
        "meta_eccentricity": 0.00655889,
        "meta_inclination": 99.6008,
        "meta_ra_of_asc_node": 85.032,
        "meta_arg_of_pericenter": 219.2127,
        "meta_mean_anomaly": 159.8182,
        "meta_ephemeris_type": 0,
        "meta_classification_type": "U",
        "meta_norad_cat_id": 47005,
        "meta_element_set_no": 999,
        "meta_rev_at_epoch": 82891,
        "meta_bstar": 0.0018102005,
        "meta_mean_motion_dot": 3.277e-05,
        "meta_mean_motion_ddot": 0,
        "tle_line1": "1 47005U 99025FAF 25355.50397778  .00003277  00000+0  18102-2 0  9999",
        "tle_line2": "2 47005  99.6008  85.0320 0065588 219.2127 159.8182 14.11117395828919"
      },
      "geometry": {
        "type": "Point",
        "coordinates": [
          -143.05974495144417,
          -77.4108430060253
        ]
      }
    },
    {
      "type": "Feature",
      "properties": {
        "norad_id": 47007,
        "name": "FENGYUN 1C DEB",
        "group": "fengyun-1c-debris",
        "lat": -75.52148991030876,
        "lon": 3.5688599782452064,
        "alt_km": 1013.8740232557975,
        "timestamp": "2025-12-22T14:45:57.693667+00:00",
        "meta_object_name": "FENGYUN 1C DEB",
        "meta_object_id": "1999-025FAH",
        "meta_epoch": "2025-12-16T09:44:03.870240",
        "meta_mean_motion": 13.97251993,
        "meta_eccentricity": 0.02368252,
        "meta_inclination": 98.2082,
        "meta_ra_of_asc_node": 211.9995,
        "meta_arg_of_pericenter": 43.4139,
        "meta_mean_anomaly": 318.5411,
        "meta_ephemeris_type": 0,
        "meta_classification_type": "U",
        "meta_norad_cat_id": 47007,
        "meta_element_set_no": 999,
        "meta_rev_at_epoch": 78900,
        "meta_bstar": 0.0020308596,
        "meta_mean_motion_dot": 3.573e-05,
        "meta_mean_motion_ddot": 0,
        "tle_line1": "1 47007U 99025FAH 25350.40560035  .00003573  00000+0  20309-2 0  9994",
        "tle_line2": "2 47007  98.2082 211.9995 0236825  43.4139 318.5411 13.97251993789001"
      },
      "geometry": {
        "type": "Point",
        "coordinates": [
          3.5688599782452064,
          -75.52148991030876
        ]
      }
    },
    {
      "type": "Feature",
      "properties": {
        "norad_id": 47009,
        "name": "FENGYUN 1C DEB",
        "group": "fengyun-1c-debris",
        "lat": -58.17600562040193,
        "lon": 144.56564161765948,
        "alt_km": 863.8003429010114,
        "timestamp": "2025-12-22T14:45:57.693678+00:00",
        "meta_object_name": "FENGYUN 1C DEB",
        "meta_object_id": "1999-025FAK",
        "meta_epoch": "2025-12-21T05:14:14.201088",
        "meta_mean_motion": 13.37315869,
        "meta_eccentricity": 0.0351179,
        "meta_inclination": 98.9317,
        "meta_ra_of_asc_node": 338.0153,
        "meta_arg_of_pericenter": 238.1062,
        "meta_mean_anomaly": 118.5455,
        "meta_ephemeris_type": 0,
        "meta_classification_type": "U",
        "meta_norad_cat_id": 47009,
        "meta_element_set_no": 999,
        "meta_rev_at_epoch": 58922,
        "meta_bstar": 0.00028582,
        "meta_mean_motion_dot": 1.74e-06,
        "meta_mean_motion_ddot": 0,
        "tle_line1": "1 47009U 99025FAK 25355.21821992  .00000174  00000+0  28582-3 0  9998",
        "tle_line2": "2 47009  98.9317 338.0153 0351179 238.1062 118.5455 13.37315869589221"
      },
      "geometry": {
        "type": "Point",
        "coordinates": [
          144.56564161765948,
          -58.17600562040193
        ]
      }
    },
    {
      "type": "Feature",
      "properties": {
        "norad_id": 47012,
        "name": "FENGYUN 1C DEB",
        "group": "fengyun-1c-debris",
        "lat": -81.13925498216777,
        "lon": -44.37454652685372,
        "alt_km": 1047.4166462137891,
        "timestamp": "2025-12-22T14:45:57.693712+00:00",
        "meta_object_name": "FENGYUN 1C DEB",
        "meta_object_id": "1999-025FAN",
        "meta_epoch": "2025-12-05T22:22:36.481152",
        "meta_mean_motion": 13.77908149,
        "meta_eccentricity": 0.01638485,
        "meta_inclination": 98.755,
        "meta_ra_of_asc_node": 218.9381,
        "meta_arg_of_pericenter": 81.7177,
        "meta_mean_anomaly": 280.2518,
        "meta_ephemeris_type": 0,
        "meta_classification_type": "U",
        "meta_norad_cat_id": 47012,
        "meta_element_set_no": 999,
        "meta_rev_at_epoch": 54479,
        "meta_bstar": 0.00065808903,
        "meta_mean_motion_dot": 6.91e-06,
        "meta_mean_motion_ddot": 0,
        "tle_line1": "1 47012U 99025FAN 25339.93236668  .00000691  00000+0  65809-3 0  9990",
        "tle_line2": "2 47012  98.7550 218.9381 0163848  81.7177 280.2518 13.77908149544797"
      },
      "geometry": {
        "type": "Point",
        "coordinates": [
          -44.37454652685372,
          -81.13925498216777
        ]
      }
    },
    {
      "type": "Feature",
      "properties": {
        "norad_id": 47015,
        "name": "FENGYUN 1C DEB",
        "group": "fengyun-1c-debris",
        "lat": 5.3275365364282985,
        "lon": -124.89519013014387,
        "alt_km": 613.3086951338728,
        "timestamp": "2025-12-22T14:45:57.693723+00:00",
        "meta_object_name": "FENGYUN 1C DEB",
        "meta_object_id": "1999-025FAR",
        "meta_epoch": "2025-12-20T10:20:25.475424",
        "meta_mean_motion": 14.87477483,
        "meta_eccentricity": 0.01753836,
        "meta_inclination": 98.7094,
        "meta_ra_of_asc_node": 51.8891,
        "meta_arg_of_pericenter": 88.0341,
        "meta_mean_anomaly": 274.0948,
        "meta_ephemeris_type": 0,
        "meta_classification_type": "U",
        "meta_norad_cat_id": 47015,
        "meta_element_set_no": 999,
        "meta_rev_at_epoch": 64496,
        "meta_bstar": 0.00039688494,
        "meta_mean_motion_dot": 4.702e-05,
        "meta_mean_motion_ddot": 0,
        "tle_line1": "1 47015U 99025FAR 25354.43085041  .00004702  00000+0  39688-3 0  9995",
        "tle_line2": "2 47015  98.7094  51.8891 0175383  88.0341 274.0948 14.87477483644965"
      },
      "geometry": {
        "type": "Point",
        "coordinates": [
          -124.89519013014387,
          5.3275365364282985
        ]
      }
    }
  ]
}